HST                     
1 20580U 90037B   26068.15977042  .00009063  00000+0  30023-3 0  9999
2 20580  28.4717  43.6133 0001837 120.9992 239.0785 15.29473555773239
STARLINK-31529          
1 59000U 24036C   26068.29360796  .00000539  00000+0  30342-4 0  9995
2 59000  53.1606  77.7713 0001125  89.5287 270.5843 15.30193147115210
