[{"OBJECT_NAME":"HST","OBJECT_ID":"1990-037B","EPOCH":"2026-03-09T03:50:04.164288","MEAN_MOTION":15.29473555,"ECCENTRICITY":0.00018372,"INCLINATION":28.4717,"RA_OF_ASC_NODE":43.6133,"ARG_OF_PERICENTER":120.9992,"MEAN_ANOMALY":239.0785,"EPHEMERIS_TYPE":0,"CLASSIFICATION_TYPE":"U","NORAD_CAT_ID":20580,"ELEMENT_SET_NO":999,"REV_AT_EPOCH":77323,"BSTAR":0.0003002261,"MEAN_MOTION_DOT":9.063e-5,"MEAN_MOTION_DDOT":0},{"OBJECT_NAME":"STARLINK-31529","OBJECT_ID":"2024-036C","EPOCH":"2026-03-09T07:02:47.727744","MEAN_MOTION":15.30193147,"ECCENTRICITY":0.00011253,"INCLINATION":53.1606,"RA_OF_ASC_NODE":77.7713,"ARG_OF_PERICENTER":89.5287,"MEAN_ANOMALY":270.5843,"EPHEMERIS_TYPE":0,"CLASSIFICATION_TYPE":"U","NORAD_CAT_ID":59000,"ELEMENT_SET_NO":999,"REV_AT_EPOCH":11521,"BSTAR":3.0341698e-5,"MEAN_MOTION_DOT":5.39e-6,"MEAN_MOTION_DDOT":0}]
